[{"OBJECT_NAME":"STARLINK-33531","OBJECT_ID":"2025-065A","EPOCH":"2026-03-08T11:10:12.836640","MEAN_MOTION":15.27601157,"ECCENTRICITY":0.00012042,"INCLINATION":43.0009,"RA_OF_ASC_NODE":113.9152,"ARG_OF_PERICENTER":281.0419,"MEAN_ANOMALY":79.0297,"EPHEMERIS_TYPE":0,"CLASSIFICATION_TYPE":"U","NORAD_CAT_ID":63399,"ELEMENT_SET_NO":999,"REV_AT_EPOCH":5265,"BSTAR":0.0013310448,"MEAN_MOTION_DOT":0.00036571,"MEAN_MOTION_DDOT":0},{"OBJECT_NAME":"CZ-6A DEB","OBJECT_ID":"2022-151SD","EPOCH":"2026-03-09T21:25:15.700512","MEAN_MOTION":15.24469357,"ECCENTRICITY":0.00248717,"INCLINATION":98.6538,"RA_OF_ASC_NODE":157.5128,"ARG_OF_PERICENTER":174.047,"MEAN_ANOMALY":186.1065,"EPHEMERIS_TYPE":0,"CLASSIFICATION_TYPE":"U","NORAD_CAT_ID":54940,"ELEMENT_SET_NO":999,"REV_AT_EPOCH":17680,"BSTAR":0.0087519903,"MEAN_MOTION_DOT":0.00223015,"MEAN_MOTION_DDOT":0}]
